     3.04           N: GNSS NAV DATA    E: GALILEO          RINEX VERSION / TYPE
cnvtToRINEX 3.14.0  convertToRINEX OPR  20250615 162737 UTC PGM / RUN BY / DATE 
----------------------------------------------------------- COMMENT             
GAL    0.0000D+00  0.0000D+00  0.0000D+00                   IONOSPHERIC CORR    
GAUT  0.0000000000D+00 0.000000000D+00      0    0          TIME SYSTEM CORR    
GAGP  0.0000000000D+00 0.000000000D+00      0    0          TIME SYSTEM CORR    
                                                            END OF HEADER       
E15 2025 06 15 14 10 00-0.180281407665D-03-0.244426701101D-11 0.000000000000D+00
     0.850000000000D+02 0.130250000000D+03 0.267975447967D-08 0.144069247984D+01
     0.623613595963D-05 0.133007066324D-03 0.443123281002D-05 0.544060894966D+04
     0.510000000000D+05-0.167638063431D-07 0.153966961840D+01 0.912696123123D-07
     0.999211786210D+00 0.265031250000D+03 0.649676008814D-01-0.551272962732D-08
     0.197508227010D-09 0.513000000000D+03 0.237100000000D+04 0.000000000000D+00
     0.312000000000D+01 0.000000000000D+00 0.535510480404D-08 0.605359673500D-08
     0.516850000000D+05 0.000000000000D+00 0.000000000000D+00 0.000000000000D+00
E 3 2025 06 15 14 10 00-0.198145222384D-03-0.250111042988D-11 0.000000000000D+00
     0.850000000000D+02-0.133406250000D+03 0.277154401736D-08 0.150722123667D-01
    -0.623986124992D-05 0.403083045967D-03 0.924617052078D-05 0.544062589645D+04
     0.510000000000D+05 0.372529029846D-08-0.265685465147D+01 0.540167093277D-07
     0.964935242569D+00 0.142687500000D+03 0.189868995160D+00-0.539986778331D-08
     0.328585115460D-10 0.513000000000D+03 0.237100000000D+04 0.000000000000D+00
     0.312000000000D+01 0.000000000000D+00 0.209547579288D-08 0.256113708019D-08
     0.516850000000D+05 0.000000000000D+00 0.000000000000D+00 0.000000000000D+00
E 5 2025 06 15 14 10 00 0.486049224855D-02 0.308375547320D-11 0.000000000000D+00
     0.850000000000D+02-0.145093750000D+03 0.275440044612D-08 0.151667822086D+01
    -0.667199492455D-05 0.275476602837D-03 0.900961458683D-05 0.544062052536D+04
     0.510000000000D+05-0.117346644402D-06-0.265684728275D+01-0.372529029846D-07
     0.964950092650D+00 0.152062500000D+03-0.530628320308D+00-0.531164982296D-08
    -0.214294640518D-11 0.513000000000D+03 0.237100000000D+04 0.000000000000D+00
     0.312000000000D+01 0.000000000000D+00 0.232830643654D-08 0.302679836750D-08
     0.516850000000D+05 0.000000000000D+00 0.000000000000D+00 0.000000000000D+00
E15 2025 06 15 14 10 00-0.180282746442D-03-0.244426701101D-11 0.000000000000D+00
     0.850000000000D+02 0.130250000000D+03 0.267975447967D-08 0.144069247984D+01
     0.623613595963D-05 0.133007066324D-03 0.443123281002D-05 0.544060894966D+04
     0.510000000000D+05-0.167638063431D-07 0.153966961840D+01 0.912696123123D-07
     0.999211786210D+00 0.265031250000D+03 0.649676008814D-01-0.551272962732D-08
     0.197508227010D-09 0.258000000000D+03 0.237100000000D+04 0.000000000000D+00
     0.312000000000D+01 0.000000000000D+00 0.535510480404D-08 0.000000000000D+00
     0.517200000000D+05 0.000000000000D+00 0.000000000000D+00 0.000000000000D+00
E 3 2025 06 15 14 10 00-0.198146444745D-03-0.250111042988D-11 0.000000000000D+00
     0.850000000000D+02-0.133406250000D+03 0.277154401736D-08 0.150722123667D-01
    -0.623986124992D-05 0.403083045967D-03 0.924617052078D-05 0.544062589645D+04
     0.510000000000D+05 0.372529029846D-08-0.265685465147D+01 0.540167093277D-07
     0.964935242569D+00 0.142687500000D+03 0.189868995160D+00-0.539986778331D-08
     0.328585115460D-10 0.258000000000D+03 0.237100000000D+04 0.000000000000D+00
     0.312000000000D+01 0.000000000000D+00 0.209547579288D-08 0.000000000000D+00
     0.517200000000D+05 0.000000000000D+00 0.000000000000D+00 0.000000000000D+00
E34 2025 06 15 14 10 00-0.187201832887D-03-0.227373675443D-11 0.000000000000D+00
     0.850000000000D+02 0.132281250000D+03 0.264153860211D-08 0.166940176860D+00
     0.620447099209D-05 0.282580964267D-03 0.450201332569D-05 0.544060780907D+04
     0.510000000000D+05-0.540167093277D-07 0.153786175448D+01-0.111758708954D-07
     0.999077661492D+00 0.262468750000D+03 0.212084491533D+01-0.544308386915D-08
     0.201079804352D-09 0.258000000000D+03 0.237100000000D+04 0.000000000000D+00
     0.312000000000D+01 0.000000000000D+00 0.279396772385D-08 0.000000000000D+00
     0.517200000000D+05 0.000000000000D+00 0.000000000000D+00 0.000000000000D+00
E 5 2025 06 15 14 10 00 0.486049079336D-02 0.306954461848D-11 0.000000000000D+00
     0.850000000000D+02-0.145093750000D+03 0.275440044612D-08 0.151667822086D+01
    -0.667199492455D-05 0.275476602837D-03 0.900961458683D-05 0.544062052536D+04
     0.510000000000D+05-0.117346644402D-06-0.265684728275D+01-0.372529029846D-07
     0.964950092650D+00 0.152062500000D+03-0.530628320308D+00-0.531164982296D-08
    -0.214294640518D-11 0.258000000000D+03 0.237100000000D+04 0.000000000000D+00
     0.312000000000D+01 0.000000000000D+00 0.232830643654D-08 0.000000000000D+00
     0.517200000000D+05 0.000000000000D+00 0.000000000000D+00 0.000000000000D+00
E36 2025 06 15 14 10 00-0.409375003073D-03-0.537170308235D-11 0.000000000000D+00
     0.850000000000D+02 0.130250000000D+03 0.267439711366D-08 0.249296700387D+01
     0.602379441261D-05 0.192353036255D-03 0.505149364471D-05 0.544060401344D+04
     0.510000000000D+05-0.763684511185D-07 0.153974724376D+01-0.596046447754D-07
     0.999260078599D+00 0.248156250000D+03 0.578362370246D+00-0.547094217242D-08
     0.156792245312D-09 0.516000000000D+03 0.237100000000D+04 0.000000000000D+00
     0.312000000000D+01 0.000000000000D+00 0.442378222942D-08 0.535510480404D-08
     0.522040000000D+05 0.000000000000D+00 0.000000000000D+00 0.000000000000D+00
E15 2025 06 15 14 20 00-0.180282921065D-03-0.244426701101D-11 0.000000000000D+00
     0.860000000000D+02 0.128156250000D+03 0.267153985179D-08 0.151339131896D+01
     0.612623989582D-05 0.132859568112D-03 0.446103513241D-05 0.544060947990D+04
     0.516000000000D+05-0.335276126862D-07 0.153966621273D+01 0.838190317154D-07
     0.999211887152D+00 0.264468750000D+03 0.666543044650D-01-0.550558647263D-08
     0.205722854897D-09 0.516000000000D+03 0.237100000000D+04 0.000000000000D+00
     0.312000000000D+01 0.000000000000D+00 0.535510480404D-08 0.605359673500D-08
     0.522640000000D+05 0.000000000000D+00 0.000000000000D+00 0.000000000000D+00
E15 2025 06 15 14 20 00-0.180282921065D-03-0.244426701101D-11 0.000000000000D+00
     0.860000000000D+02 0.128156250000D+03 0.267153985179D-08 0.151339131896D+01
     0.612623989582D-05 0.132859568112D-03 0.446103513241D-05 0.544060947990D+04
     0.516000000000D+05-0.335276126862D-07 0.153966621273D+01 0.838190317154D-07
     0.999211887152D+00 0.264468750000D+03 0.666543044650D-01-0.550558647263D-08
     0.205722854897D-09 0.513000000000D+03 0.237100000000D+04 0.000000000000D+00
     0.312000000000D+01 0.000000000000D+00 0.535510480404D-08 0.605359673500D-08
     0.522850000000D+05 0.000000000000D+00 0.000000000000D+00 0.000000000000D+00
E34 2025 06 15 14 20 00-0.187201309018D-03-0.228794760915D-11 0.000000000000D+00
     0.860000000000D+02 0.133093750000D+03 0.264868175680D-08 0.242249417746D+00
     0.624172389507D-05 0.282362918369D-03 0.462122261524D-05 0.544060713768D+04
     0.516000000000D+05-0.484287738800D-07 0.153785846291D+01-0.130385160446D-07
     0.999077799006D+00 0.259812500000D+03 0.211992070952D+01-0.543951229181D-08
     0.201436962087D-09 0.513000000000D+03 0.237100000000D+04 0.000000000000D+00
     0.312000000000D+01 0.000000000000D+00 0.279396772385D-08 0.395812094212D-08
     0.522850000000D+05 0.000000000000D+00 0.000000000000D+00 0.000000000000D+00
E34 2025 06 15 14 20 00-0.187201309018D-03-0.228794760915D-11 0.000000000000D+00
     0.860000000000D+02 0.133093750000D+03 0.264868175680D-08 0.242249417746D+00
     0.624172389507D-05 0.282362918369D-03 0.462122261524D-05 0.544060713768D+04
     0.516000000000D+05-0.484287738800D-07 0.153785846291D+01-0.130385160446D-07
     0.999077799006D+00 0.259812500000D+03 0.211992070952D+01-0.543951229181D-08
     0.201436962087D-09 0.516000000000D+03 0.237100000000D+04 0.000000000000D+00
     0.312000000000D+01 0.000000000000D+00 0.279396772385D-08 0.395812094212D-08
     0.522640000000D+05 0.000000000000D+00 0.000000000000D+00 0.000000000000D+00
E36 2025 06 15 14 20 00-0.409378379118D-03-0.538591393706D-11 0.000000000000D+00
     0.860000000000D+02 0.131156250000D+03 0.267689721780D-08 0.256736125532D+01
     0.606663525105D-05 0.192231149413D-03 0.503286719322D-05 0.544060425377D+04
     0.516000000000D+05-0.707805156708D-07 0.153974395805D+01-0.763684511185D-07
     0.999260103469D+00 0.248531250000D+03 0.578353689290D+00-0.548022827350D-08
     0.162149611325D-09 0.513000000000D+03 0.237100000000D+04 0.000000000000D+00
     0.312000000000D+01 0.000000000000D+00 0.442378222942D-08 0.535510480404D-08
     0.523750000000D+05 0.000000000000D+00 0.000000000000D+00 0.000000000000D+00
E15 2025 06 15 14 20 00-0.180284318049D-03-0.245847786573D-11 0.000000000000D+00
     0.860000000000D+02 0.128156250000D+03 0.267153985179D-08 0.151339131896D+01
     0.612623989582D-05 0.132859568112D-03 0.446103513241D-05 0.544060947990D+04
     0.516000000000D+05-0.335276126862D-07 0.153966621273D+01 0.838190317154D-07
     0.999211887152D+00 0.264468750000D+03 0.666543044650D-01-0.550558647263D-08
     0.205722854897D-09 0.258000000000D+03 0.237100000000D+04 0.000000000000D+00
     0.312000000000D+01 0.000000000000D+00 0.535510480404D-08 0.000000000000D+00
     0.523700000000D+05 0.000000000000D+00 0.000000000000D+00 0.000000000000D+00
